{"type": "FeatureCollection", "features": [{"type": "Feature", "properties": {"norad_id": 22490, "name": "SCD 1", "group": "resource", "lat": 1.8954721422821401, "lon": -129.7032535662786, "alt_km": 717.3174759403273, "timestamp": "2025-12-21T05:44:51.232146+00:00", "meta": {"OBJECT_NAME": "SCD 1", "OBJECT_ID": "1993-009B", "EPOCH": "2025-12-20T20:00:20.609568", "MEAN_MOTION": 14.46004096, "ECCENTRICITY": 0.00421217, "INCLINATION": 24.9682, "RA_OF_ASC_NODE": 228.7229, "ARG_OF_PERICENTER": 50.6528, "MEAN_ANOMALY": 356.9599, "EPHEMERIS_TYPE": 0, "CLASSIFICATION_TYPE": "U", "NORAD_CAT_ID": 22490, "ELEMENT_SET_NO": 999, "REV_AT_EPOCH": 73527, "BSTAR": 6.2642075e-05, "MEAN_MOTION_DOT": 4.14e-06, "MEAN_MOTION_DDOT": 0}, "tle": {"line1": "1 22490U 93009B   25354.83357187  .00000414  00000+0  62642-4 0  9991", "line2": "2 22490  24.9682 228.7229 0042121  50.6528 356.9599 14.46004096735272"}}, "geometry": {"type": "Point", "coordinates": [-129.7032535662786, 1.8954721422821401]}}, {"type": "Feature", "properties": {"norad_id": 25397, "name": "TECHSAT 1B (GO-32)", "group": "resource", "lat": 10.438906545213532, "lon": 160.31976009617634, "alt_km": 812.8097911707973, "timestamp": "2025-12-21T05:44:51.232189+00:00", "meta": {"OBJECT_NAME": "TECHSAT 1B (GO-32)", "OBJECT_ID": "1998-043D", "EPOCH": "2025-12-20T12:05:47.212224", "MEAN_MOTION": 14.24379082, "ECCENTRICITY": 0.0001814, "INCLINATION": 98.9927, "RA_OF_ASC_NODE": 337.8955, "ARG_OF_PERICENTER": 45.0313, "MEAN_ANOMALY": 315.1012, "EPHEMERIS_TYPE": 0, "CLASSIFICATION_TYPE": "U", "NORAD_CAT_ID": 25397, "ELEMENT_SET_NO": 999, "REV_AT_EPOCH": 42589, "BSTAR": 3.7448e-05, "MEAN_MOTION_DOT": 4e-07, "MEAN_MOTION_DDOT": 0}, "tle": {"line1": "1 25397U 98043D   25354.50401866  .00000040  00000+0  37448-4 0  9992", "line2": "2 25397  98.9927 337.8955 0001814  45.0313 315.1012 14.24379082425893"}}, "geometry": {"type": "Point", "coordinates": [160.31976009617634, 10.438906545213532]}}, {"type": "Feature", "properties": {"norad_id": 25504, "name": "SCD 2", "group": "resource", "lat": 7.938291949809174, "lon": 106.90286788794715, "alt_km": 726.5375244924498, "timestamp": "2025-12-21T05:44:51.232206+00:00", "meta": {"OBJECT_NAME": "SCD 2", "OBJECT_ID": "1998-060A", "EPOCH": "2025-12-20T14:51:05.311008", "MEAN_MOTION": 14.45427239, "ECCENTRICITY": 0.0016975, "INCLINATION": 24.9946, "RA_OF_ASC_NODE": 93.3121, "ARG_OF_PERICENTER": 36.8974, "MEAN_ANOMALY": 346.0798, "EPHEMERIS_TYPE": 0, "CLASSIFICATION_TYPE": "U", "NORAD_CAT_ID": 25504, "ELEMENT_SET_NO": 999, "REV_AT_EPOCH": 43446, "BSTAR": 4.6833e-05, "MEAN_MOTION_DOT": 3.49e-06, "MEAN_MOTION_DDOT": 0}, "tle": {"line1": "1 25504U 98060A   25354.61881147  .00000349  00000+0  46833-4 0  9997", "line2": "2 25504  24.9946  93.3121 0016975  36.8974 346.0798 14.45427239434465"}}, "geometry": {"type": "Point", "coordinates": [106.90286788794715, 7.938291949809174]}}, {"type": "Feature", "properties": {"norad_id": 25757, "name": "DLR-TUBSAT", "group": "resource", "lat": 17.285961016708146, "lon": 162.7329506782438, "alt_km": 708.3631299658473, "timestamp": "2025-12-21T05:44:51.232218+00:00", "meta": {"OBJECT_NAME": "DLR-TUBSAT", "OBJECT_ID": "1999-029B", "EPOCH": "2025-12-17T13:22:10.787520", "MEAN_MOTION": 14.52359578, "ECCENTRICITY": 0.00141996, "INCLINATION": 98.6566, "RA_OF_ASC_NODE": 336.2196, "ARG_OF_PERICENTER": 177.8976, "MEAN_ANOMALY": 182.2281, "EPHEMERIS_TYPE": 0, "CLASSIFICATION_TYPE": "U", "NORAD_CAT_ID": 25757, "ELEMENT_SET_NO": 999, "REV_AT_EPOCH": 40688, "BSTAR": 3.7650132e-05, "MEAN_MOTION_DOT": 1.05e-06, "MEAN_MOTION_DDOT": 0}, "tle": {"line1": "1 25757U 99029B   25351.55706930  .00000105  00000+0  37650-4 0  9996", "line2": "2 25757  98.6566 336.2196 0014199 177.8976 182.2281 14.52359578406886"}}, "geometry": {"type": "Point", "coordinates": [162.7329506782438, 17.285961016708146]}}, {"type": "Feature", "properties": {"norad_id": 25994, "name": "TERRA", "group": "resource", "lat": 52.86102625803831, "lon": -122.72332185883249, "alt_km": 683.6518690794119, "timestamp": "2025-12-21T05:44:51.232230+00:00", "meta": {"OBJECT_NAME": "TERRA", "OBJECT_ID": "1999-068A", "EPOCH": "2025-12-20T21:44:28.542624", "MEAN_MOTION": 14.60910196, "ECCENTRICITY": 0.00035301, "INCLINATION": 97.9736, "RA_OF_ASC_NODE": 46.2903, "ARG_OF_PERICENTER": 78.3423, "MEAN_ANOMALY": 94.5294, "EPHEMERIS_TYPE": 0, "CLASSIFICATION_TYPE": "U", "NORAD_CAT_ID": 25994, "ELEMENT_SET_NO": 999, "REV_AT_EPOCH": 38357, "BSTAR": 7.6124073e-05, "MEAN_MOTION_DOT": 3.28e-06, "MEAN_MOTION_DDOT": 0}, "tle": {"line1": "1 25994U 99068A   25354.90588591  .00000328  00000+0  76124-4 0  9991", "line2": "2 25994  97.9736  46.2903 0003530  78.3423  94.5294 14.60910196383570"}}, "geometry": {"type": "Point", "coordinates": [-122.72332185883249, 52.86102625803831]}}, {"type": "Feature", "properties": {"norad_id": 27004, "name": "MAROC-TUBSAT", "group": "resource", "lat": -45.25503699735931, "lon": -26.200565810607312, "alt_km": 991.4200699094054, "timestamp": "2025-12-21T05:44:51.232241+00:00", "meta": {"OBJECT_NAME": "MAROC-TUBSAT", "OBJECT_ID": "2001-056D", "EPOCH": "2025-12-20T16:40:20.254368", "MEAN_MOTION": 13.70253273, "ECCENTRICITY": 0.00191813, "INCLINATION": 99.7915, "RA_OF_ASC_NODE": 163.279, "ARG_OF_PERICENTER": 239.0349, "MEAN_ANOMALY": 180.9715, "EPHEMERIS_TYPE": 0, "CLASSIFICATION_TYPE": "U", "NORAD_CAT_ID": 27004, "ELEMENT_SET_NO": 999, "REV_AT_EPOCH": 20174, "BSTAR": 1.6153003e-05, "MEAN_MOTION_DOT": -3.2e-07, "MEAN_MOTION_DDOT": 0}, "tle": {"line1": "1 27004U 01056D   25354.69467887 -.00000032  00000+0  16153-4 0  9994", "line2": "2 27004  99.7915 163.2790 0019181 239.0349 180.9715 13.70253273201741"}}, "geometry": {"type": "Point", "coordinates": [-26.200565810607312, -45.25503699735931]}}, {"type": "Feature", "properties": {"norad_id": 27424, "name": "AQUA", "group": "resource", "lat": 29.08155459141928, "lon": -48.45972467879832, "alt_km": 685.7409511125352, "timestamp": "2025-12-21T05:44:51.232253+00:00", "meta": {"OBJECT_NAME": "AQUA", "OBJECT_ID": "2002-022A", "EPOCH": "2025-12-20T21:44:41.124192", "MEAN_MOTION": 14.61819722, "ECCENTRICITY": 0.00014178, "INCLINATION": 98.4047, "RA_OF_ASC_NODE": 315.9181, "ARG_OF_PERICENTER": 110.6839, "MEAN_ANOMALY": 325.0971, "EPHEMERIS_TYPE": 0, "CLASSIFICATION_TYPE": "U", "NORAD_CAT_ID": 27424, "ELEMENT_SET_NO": 999, "REV_AT_EPOCH": 25722, "BSTAR": 0.00013305992, "MEAN_MOTION_DOT": 6.15e-06, "MEAN_MOTION_DDOT": 0}, "tle": {"line1": "1 27424U 02022A   25354.90603153  .00000615  00000+0  13306-3 0  9998", "line2": "2 27424  98.4047 315.9181 0001417 110.6839 325.0971 14.61819722257228"}}, "geometry": {"type": "Point", "coordinates": [-48.45972467879832, 29.08155459141928]}}, {"type": "Feature", "properties": {"norad_id": 28051, "name": "IRS-P6 (RESOURCESAT-1)", "group": "resource", "lat": -7.679418783397901, "lon": -145.86382456222665, "alt_km": 736.2411219548367, "timestamp": "2025-12-21T05:44:51.232264+00:00", "meta": {"OBJECT_NAME": "IRS-P6 (RESOURCESAT-1)", "OBJECT_ID": "2003-046A", "EPOCH": "2025-12-20T22:45:11.155392", "MEAN_MOTION": 14.36077485, "ECCENTRICITY": 0.00646889, "INCLINATION": 98.2169, "RA_OF_ASC_NODE": 34.9747, "ARG_OF_PERICENTER": 156.1149, "MEAN_ANOMALY": 325.3144, "EPHEMERIS_TYPE": 0, "CLASSIFICATION_TYPE": "U", "NORAD_CAT_ID": 28051, "ELEMENT_SET_NO": 999, "REV_AT_EPOCH": 15494, "BSTAR": -1.930018e-06, "MEAN_MOTION_DOT": -4.6e-07, "MEAN_MOTION_DDOT": 0}, "tle": {"line1": "1 28051U 03046A   25354.94804578 -.00000046  00000+0 -19300-5 0  9992", "line2": "2 28051  98.2169  34.9747 0064688 156.1149 325.3144 14.36077485154946"}}, "geometry": {"type": "Point", "coordinates": [-145.86382456222665, -7.679418783397901]}}, {"type": "Feature", "properties": {"norad_id": 28220, "name": "SHIYAN-1 (SY-1)", "group": "resource", "lat": -2.897853610506237, "lon": 57.68283664220546, "alt_km": 482.80371492207814, "timestamp": "2025-12-21T05:44:51.232275+00:00", "meta": {"OBJECT_NAME": "SHIYAN-1 (SY-1)", "OBJECT_ID": "2004-012A", "EPOCH": "2025-12-20T21:54:13.277952", "MEAN_MOTION": 15.283389, "ECCENTRICITY": 0.00052063, "INCLINATION": 97.8928, "RA_OF_ASC_NODE": 56.9343, "ARG_OF_PERICENTER": 291.622, "MEAN_ANOMALY": 68.4464, "EPHEMERIS_TYPE": 0, "CLASSIFICATION_TYPE": "U", "NORAD_CAT_ID": 28220, "ELEMENT_SET_NO": 999, "REV_AT_EPOCH": 18381, "BSTAR": 0.00033427156, "MEAN_MOTION_DOT": 9.149e-05, "MEAN_MOTION_DDOT": 0}, "tle": {"line1": "1 28220U 04012A   25354.91265368  .00009149  00000+0  33427-3 0  9994", "line2": "2 28220  97.8928  56.9343 0005206 291.6220  68.4464 15.28338900183816"}}, "geometry": {"type": "Point", "coordinates": [57.68283664220546, -2.897853610506237]}}, {"type": "Feature", "properties": {"norad_id": 28376, "name": "AURA", "group": "resource", "lat": 44.86352001093968, "lon": 133.87997517991306, "alt_km": 685.5092886741159, "timestamp": "2025-12-21T05:44:51.232286+00:00", "meta": {"OBJECT_NAME": "AURA", "OBJECT_ID": "2004-026A", "EPOCH": "2025-12-20T20:54:56.653920", "MEAN_MOTION": 14.60963566, "ECCENTRICITY": 0.00013704, "INCLINATION": 98.3196, "RA_OF_ASC_NODE": 305.1362, "ARG_OF_PERICENTER": 92.8169, "MEAN_ANOMALY": 267.3188, "EPHEMERIS_TYPE": 0, "CLASSIFICATION_TYPE": "U", "NORAD_CAT_ID": 28376, "ELEMENT_SET_NO": 999, "REV_AT_EPOCH": 14017, "BSTAR": 0.00015769695, "MEAN_MOTION_DOT": 7.25e-06, "MEAN_MOTION_DDOT": 0}, "tle": {"line1": "1 28376U 04026A   25354.87148905  .00000725  00000+0  15770-3 0  9995", "line2": "2 28376  98.3196 305.1362 0001370  92.8169 267.3188 14.60963566140174"}}, "geometry": {"type": "Point", "coordinates": [133.87997517991306, 44.86352001093968]}}]}